[{"OBJECT_NAME":"ONEWEB-0403","OBJECT_ID":"2021-132Q","EPOCH":"2026-05-26T06:22:54.528960","MEAN_MOTION":13.18686912,"ECCENTRICITY":0.0001945,"INCLINATION":87.9169,"RA_OF_ASC_NODE":339.8174,"ARG_OF_PERICENTER":90.8261,"MEAN_ANOMALY":269.3094,"EPHEMERIS_TYPE":0,"CLASSIFICATION_TYPE":"U","NORAD_CAT_ID":50483,"ELEMENT_SET_NO":999,"REV_AT_EPOCH":21870,"BSTAR":-4.3301000000000004e-05,"MEAN_MOTION_DOT":-4e-08,"MEAN_MOTION_DDOT":0.0},{"OBJECT_NAME":"ONEWEB-0404","OBJECT_ID":"2021-132R","EPOCH":"2026-05-26T04:55:50.423808","MEAN_MOTION":13.11414988,"ECCENTRICITY":0.0002062,"INCLINATION":87.8909,"RA_OF_ASC_NODE":25.4406,"ARG_OF_PERICENTER":88.2685,"MEAN_ANOMALY":271.8679,"EPHEMERIS_TYPE":0,"CLASSIFICATION_TYPE":"U","NORAD_CAT_ID":50484,"ELEMENT_SET_NO":999,"REV_AT_EPOCH":21281,"BSTAR":0.0007228099999999999,"MEAN_MOTION_DOT":2.69e-06,"MEAN_MOTION_DDOT":0.0},{"OBJECT_NAME":"ONEWEB-0405","OBJECT_ID":"2021-132S","EPOCH":"2026-05-26T06:42:20.244672","MEAN_MOTION":13.18685249,"ECCENTRICITY":0.0001538,"INCLINATION":87.9174,"RA_OF_ASC_NODE":339.7987,"ARG_OF_PERICENTER":101.1507,"MEAN_ANOMALY":258.9798,"EPHEMERIS_TYPE":0,"CLASSIFICATION_TYPE":"U","NORAD_CAT_ID":50485,"ELEMENT_SET_NO":999,"REV_AT_EPOCH":21910,"BSTAR":0.00014711,"MEAN_MOTION_DOT":7.1e-07,"MEAN_MOTION_DDOT":0.0},{"OBJECT_NAME":"ONEWEB-0406","OBJECT_ID":"2021-132T","EPOCH":"2026-05-26T06:30:11.900448","MEAN_MOTION":13.18687918,"ECCENTRICITY":0.0002357,"INCLINATION":87.9159,"RA_OF_ASC_NODE":339.8187,"ARG_OF_PERICENTER":96.2365,"MEAN_ANOMALY":263.9036,"EPHEMERIS_TYPE":0,"CLASSIFICATION_TYPE":"U","NORAD_CAT_ID":50486,"ELEMENT_SET_NO":999,"REV_AT_EPOCH":21873,"BSTAR":2.9332000000000003e-05,"MEAN_MOTION_DOT":2.4e-07,"MEAN_MOTION_DDOT":0.0},{"OBJECT_NAME":"ONEWEB-0407","OBJECT_ID":"2021-132U","EPOCH":"2026-05-26T06:20:28.662432","MEAN_MOTION":13.18685939,"ECCENTRICITY":0.0001658,"INCLINATION":87.9167,"RA_OF_ASC_NODE":339.8107,"ARG_OF_PERICENTER":84.2804,"MEAN_ANOMALY":275.8517,"EPHEMERIS_TYPE":0,"CLASSIFICATION_TYPE":"U","NORAD_CAT_ID":50487,"ELEMENT_SET_NO":999,"REV_AT_EPOCH":21867,"BSTAR":8.492e-05,"MEAN_MOTION_DOT":4.6e-07,"MEAN_MOTION_DDOT":0.0},{"OBJECT_NAME":"ONEWEB-0409","OBJECT_ID":"2021-132V","EPOCH":"2026-05-26T04:53:23.868672","MEAN_MOTION":13.11414821,"ECCENTRICITY":0.0001948,"INCLINATION":87.8913,"RA_OF_ASC_NODE":25.428,"ARG_OF_PERICENTER":90.3631,"MEAN_ANOMALY":269.7721,"EPHEMERIS_TYPE":0,"CLASSIFICATION_TYPE":"U","NORAD_CAT_ID":50488,"ELEMENT_SET_NO":999,"REV_AT_EPOCH":21270,"BSTAR":0.0009006,"MEAN_MOTION_DOT":3.32e-06,"MEAN_MOTION_DDOT":0.0},{"OBJECT_NAME":"ONEWEB-0412","OBJECT_ID":"2021-132W","EPOCH":"2026-05-26T06:03:29.217600","MEAN_MOTION":13.1868783,"ECCENTRICITY":0.0001944,"INCLINATION":87.9166,"RA_OF_ASC_NODE":339.8222,"ARG_OF_PERICENTER":79.5538,"MEAN_ANOMALY":280.5814,"EPHEMERIS_TYPE":0,"CLASSIFICATION_TYPE":"U","NORAD_CAT_ID":50489,"ELEMENT_SET_NO":999,"REV_AT_EPOCH":21876,"BSTAR":0.00011011,"MEAN_MOTION_DOT":5.6e-07,"MEAN_MOTION_DDOT":0.0},{"OBJECT_NAME":"ONEWEB-0413","OBJECT_ID":"2021-132X","EPOCH":"2026-05-26T06:10:46.263360","MEAN_MOTION":13.18687888,"ECCENTRICITY":0.0001793,"INCLINATION":87.9158,"RA_OF_ASC_NODE":339.8216,"ARG_OF_PERICENTER":79.7294,"MEAN_ANOMALY":280.404,"EPHEMERIS_TYPE":0,"CLASSIFICATION_TYPE":"U","NORAD_CAT_ID":50490,"ELEMENT_SET_NO":999,"REV_AT_EPOCH":21870,"BSTAR":0.00016794000000000002,"MEAN_MOTION_DOT":7.9e-07,"MEAN_MOTION_DDOT":0.0},{"OBJECT_NAME":"ONEWEB-0414","OBJECT_ID":"2021-132Y","EPOCH":"2026-05-26T05:48:54.247392","MEAN_MOTION":13.18687939,"ECCENTRICITY":0.0001975,"INCLINATION":87.9168,"RA_OF_ASC_NODE":339.8043,"ARG_OF_PERICENTER":85.3036,"MEAN_ANOMALY":274.8322,"EPHEMERIS_TYPE":0,"CLASSIFICATION_TYPE":"U","NORAD_CAT_ID":50491,"ELEMENT_SET_NO":999,"REV_AT_EPOCH":21873,"BSTAR":3.3527000000000006e-05,"MEAN_MOTION_DOT":2.6e-07,"MEAN_MOTION_DDOT":0.0},{"OBJECT_NAME":"ONEWEB-0417","OBJECT_ID":"2021-132Z","EPOCH":"2026-05-26T02:22:31.872000","MEAN_MOTION":13.18688364,"ECCENTRICITY":0.0001993,"INCLINATION":87.9158,"RA_OF_ASC_NODE":339.8544,"ARG_OF_PERICENTER":93.848,"MEAN_ANOMALY":266.288,"EPHEMERIS_TYPE":0,"CLASSIFICATION_TYPE":"U","NORAD_CAT_ID":50492,"ELEMENT_SET_NO":999,"REV_AT_EPOCH":21869,"BSTAR":7.966800000000001e-05,"MEAN_MOTION_DOT":4.4e-07,"MEAN_MOTION_DDOT":0.0},{"OBJECT_NAME":"ONEWEB-0418","OBJECT_ID":"2021-132AA","EPOCH":"2026-05-26T06:15:25.593696","MEAN_MOTION":13.18685601,"ECCENTRICITY":0.0002045,"INCLINATION":87.9168,"RA_OF_ASC_NODE":339.8195,"ARG_OF_PERICENTER":95.002,"MEAN_ANOMALY":265.1346,"EPHEMERIS_TYPE":0,"CLASSIFICATION_TYPE":"U","NORAD_CAT_ID":50493,"ELEMENT_SET_NO":999,"REV_AT_EPOCH":21877,"BSTAR":0.00021912,"MEAN_MOTION_DOT":9.9e-07,"MEAN_MOTION_DDOT":0.0},{"OBJECT_NAME":"ONEWEB-0419","OBJECT_ID":"2021-132AB","EPOCH":"2026-05-26T06:41:42.614880","MEAN_MOTION":13.18664348,"ECCENTRICITY":0.0001858,"INCLINATION":87.917,"RA_OF_ASC_NODE":339.8155,"ARG_OF_PERICENTER":97.2634,"MEAN_ANOMALY":262.8709,"EPHEMERIS_TYPE":0,"CLASSIFICATION_TYPE":"U","NORAD_CAT_ID":50494,"ELEMENT_SET_NO":999,"REV_AT_EPOCH":21869,"BSTAR":1.4225e-06,"MEAN_MOTION_DOT":1.3e-07,"MEAN_MOTION_DDOT":0.0},{"OBJECT_NAME":"ONEWEB-0420","OBJECT_ID":"2021-132AC","EPOCH":"2026-05-26T05:51:19.543680","MEAN_MOTION":13.18688031,"ECCENTRICITY":0.0001654,"INCLINATION":87.916,"RA_OF_ASC_NODE":339.8276,"ARG_OF_PERICENTER":85.0664,"MEAN_ANOMALY":275.0657,"EPHEMERIS_TYPE":0,"CLASSIFICATION_TYPE":"U","NORAD_CAT_ID":50495,"ELEMENT_SET_NO":999,"REV_AT_EPOCH":21868,"BSTAR":0.00011576,"MEAN_MOTION_DOT":5.9e-07,"MEAN_MOTION_DDOT":0.0},{"OBJECT_NAME":"ONEWEB-0421","OBJECT_ID":"2021-132AD","EPOCH":"2026-05-26T05:41:38.134752","MEAN_MOTION":13.18686441,"ECCENTRICITY":0.0002141,"INCLINATION":87.9165,"RA_OF_ASC_NODE":339.8254,"ARG_OF_PERICENTER":82.1171,"MEAN_ANOMALY":278.0204,"EPHEMERIS_TYPE":0,"CLASSIFICATION_TYPE":"U","NORAD_CAT_ID":50496,"ELEMENT_SET_NO":999,"REV_AT_EPOCH":21872,"BSTAR":7.8632e-05,"MEAN_MOTION_DOT":4.4e-07,"MEAN_MOTION_DDOT":0.0},{"OBJECT_NAME":"ONEWEB-0424","OBJECT_ID":"2021-132AE","EPOCH":"2026-05-26T06:35:03.553152","MEAN_MOTION":13.18687422,"ECCENTRICITY":0.0001714,"INCLINATION":87.9168,"RA_OF_ASC_NODE":339.8153,"ARG_OF_PERICENTER":100.0575,"MEAN_ANOMALY":260.0751,"EPHEMERIS_TYPE":0,"CLASSIFICATION_TYPE":"U","NORAD_CAT_ID":50497,"ELEMENT_SET_NO":999,"REV_AT_EPOCH":21875,"BSTAR":-2.5455e-05,"MEAN_MOTION_DOT":3e-08,"MEAN_MOTION_DDOT":0.0},{"OBJECT_NAME":"ONEWEB-0426","OBJECT_ID":"2021-132AF","EPOCH":"2026-05-26T05:35:35.510496","MEAN_MOTION":13.18687887,"ECCENTRICITY":0.0002547,"INCLINATION":87.9167,"RA_OF_ASC_NODE":339.8148,"ARG_OF_PERICENTER":88.833,"MEAN_ANOMALY":271.3094,"EPHEMERIS_TYPE":0,"CLASSIFICATION_TYPE":"U","NORAD_CAT_ID":50498,"ELEMENT_SET_NO":999,"REV_AT_EPOCH":21869,"BSTAR":2.8825000000000003e-05,"MEAN_MOTION_DOT":2.4e-07,"MEAN_MOTION_DDOT":0.0}]