ONEWEB-0403             
1 50483U 21132Q   26146.26590890 -.00000004  00000+0 -43301-4 0  9997
2 50483  87.9169 339.8174 0001945  90.8261 269.3094 13.18686912218708
ONEWEB-0404             
1 50484U 21132R   26146.20544472  .00000269  00000+0  72281-3 0  9996
2 50484  87.8909  25.4406 0002062  88.2685 271.8679 13.11414988212816
ONEWEB-0405             
1 50485U 21132S   26146.27940098  .00000071  00000+0  14711-3 0  9993
2 50485  87.9174 339.7987 0001538 101.1507 258.9798 13.18685249219106
ONEWEB-0406             
1 50486U 21132T   26146.27097107  .00000024  00000+0  29332-4 0  9992
2 50486  87.9159 339.8187 0002357  96.2365 263.9036 13.18687918218733
ONEWEB-0407             
1 50487U 21132U   26146.26422063  .00000046  00000+0  84920-4 0  9993
2 50487  87.9167 339.8107 0001658  84.2804 275.8517 13.18685939218673
ONEWEB-0409             
1 50488U 21132V   26146.20374848  .00000332  00000+0  90060-3 0  9994
2 50488  87.8913  25.4280 0001948  90.3631 269.7721 13.11414821212700
ONEWEB-0412             
1 50489U 21132W   26146.25242150  .00000056  00000+0  11011-3 0  9992
2 50489  87.9166 339.8222 0001944  79.5538 280.5814 13.18687830218766
ONEWEB-0413             
1 50490U 21132X   26146.25747990  .00000079  00000+0  16794-3 0  9994
2 50490  87.9158 339.8216 0001793  79.7294 280.4040 13.18687888218702
ONEWEB-0414             
1 50491U 21132Y   26146.24229453  .00000026  00000+0  33527-4 0  9999
2 50491  87.9168 339.8043 0001975  85.3036 274.8322 13.18687939218731
ONEWEB-0417             
1 50492U 21132Z   26146.09898000  .00000044  00000+0  79668-4 0  9999
2 50492  87.9158 339.8544 0001993  93.8480 266.2880 13.18688364218696
ONEWEB-0418             
1 50493U 21132AA  26146.26071289  .00000099  00000+0  21912-3 0  9999
2 50493  87.9168 339.8195 0002045  95.0020 265.1346 13.18685601218778
ONEWEB-0419             
1 50494U 21132AB  26146.27896545  .00000013  00000+0  14225-5 0  9998
2 50494  87.9170 339.8155 0001858  97.2634 262.8709 13.18664348218697
ONEWEB-0420             
1 50495U 21132AC  26146.24397620  .00000059  00000+0  11576-3 0  9990
2 50495  87.9160 339.8276 0001654  85.0664 275.0657 13.18688031218685
ONEWEB-0421             
1 50496U 21132AD  26146.23724693  .00000044  00000+0  78632-4 0  9995
2 50496  87.9165 339.8254 0002141  82.1171 278.0204 13.18686441218729
ONEWEB-0424             
1 50497U 21132AE  26146.27434668  .00000003  00000+0 -25455-4 0  9991
2 50497  87.9168 339.8153 0001714 100.0575 260.0751 13.18687422218755
ONEWEB-0426             
1 50498U 21132AF  26146.23304989  .00000024  00000+0  28825-4 0  9996
2 50498  87.9167 339.8148 0002547  88.8330 271.3094 13.18687887218699
